ONEWEB-0161             
1 48053U 21025M   25306.15971478  .00000405  00000+0  10743-2 0  9993
2 48053  87.9028   5.3471 0001938  94.2837 265.8514 13.13471453223707
ONEWEB-0158             
1 48054U 21025N   25306.42378507 -.00000295  00000+0 -84186-3 0  9990
2 48054  87.9033   5.2765 0001887 108.9386 251.1948 13.13471599223861
ONEWEB-0157             
1 48055U 21025P   25306.44918973  .00000156  00000+0  39172-3 0  9999
2 48055  87.9034   5.2782 0002107  89.5105 270.6265 13.13471779223803
ONEWEB-0162             
1 48056U 21025Q   25306.42534936 -.00000217  00000+0 -63024-3 0  9994
2 48056  87.9037   5.2837 0001757  94.8798 265.2532 13.13469494223779
ONEWEB-0155             
1 48057U 21025R   25306.20372919 -.00000287  00000+0 -82084-3 0  9996
2 48057  87.9031   5.3335 0002030  98.7764 261.3595 13.13469080223888
ONEWEB-0149             
1 48058U 21025S   25306.45425677  .00000280  00000+0  73251-3 0  9991
2 48058  87.9031   5.2779 0001675  94.3971 265.7349 13.13472154223720
ONEWEB-0148             
1 48059U 21025T   25306.41702196 -.00000181  00000+0 -53156-3 0  9996
2 48059  87.9031   5.3077 0001568  80.5614 279.5693 13.13469918223847
ONEWEB-0160             
1 48060U 21025U   25306.43393615  .00000374  00000+0  98993-3 0  9992
2 48060  87.9026   5.3015 0001947 122.4438 237.6879 13.13465995223792
ONEWEB-0163             
1 48061U 21025V   25306.41871428 -.00000203  00000+0 -59201-3 0  9996
2 48061  87.9037   5.2879 0002063  93.0759 267.0606 13.13469729223919
ONEWEB-0159             
1 48062U 21025W   25306.41024318  .00000026  00000+0  37253-4 0  9990
2 48062  87.9043   5.2729 0001888  91.9931 268.1414 13.13468313223832
ONEWEB-0164             
1 48063U 21025X   25306.46779441  .00000377  00000+0  99638-3 0  9993
2 48063  87.9031   5.2692 0001856 101.7035 258.4302 13.13472440223822
ONEWEB-0167             
1 48064U 21025Y   25306.41956125 -.00000243  00000+0 -69991-3 0  9998
2 48064  87.9025   5.3091 0002599  97.9206 262.2218 13.13469885223807
ONEWEB-0166             
1 48065U 21025Z   25306.44241192 -.00000016  00000+0 -79186-4 0  9999
2 48065  87.9032   5.2579 0001785  93.1351 266.9983 13.13470164223881
ONEWEB-0151             
1 48066U 21025AA  25306.44409351  .00000076  00000+0  17317-3 0  9994
2 48066  87.9033   5.2832 0002015 100.0623 260.0733 13.13473206223824
ONEWEB-0170             
1 48067U 21025AB  25306.45257378  .00000173  00000+0  43937-3 0  9991
2 48067  87.9030   5.2887 0002117 111.1566 248.9790 13.13469585223782
ONEWEB-0168             
1 48068U 21025AC  25306.43733558 -.00000162  00000+0 -47759-3 0  9995
2 48068  87.9033   5.2736 0001964  93.4614 266.6739 13.13469716223791
ONEWEB-0173             
1 48069U 21025AD  25306.42885929 -.00000251  00000+0 -72172-3 0  9991
2 48069  87.9033   5.2830 0002201  92.3208 267.8173 13.13468950224031
